[{"OBJECT_NAME":"STARLINK-36925","OBJECT_ID":"2026-041C","EPOCH":"2026-03-18T09:34:12.965952","MEAN_MOTION":15.75305241,"ECCENTRICITY":9.349e-5,"INCLINATION":53.1596,"RA_OF_ASC_NODE":18.65,"ARG_OF_PERICENTER":91.722,"MEAN_ANOMALY":268.3908,"EPHEMERIS_TYPE":0,"CLASSIFICATION_TYPE":"U","NORAD_CAT_ID":68042,"ELEMENT_SET_NO":999,"REV_AT_EPOCH":259,"BSTAR":0.001307201,"MEAN_MOTION_DOT":0.00205268,"MEAN_MOTION_DDOT":0},{"OBJECT_NAME":"STARLINK-36902","OBJECT_ID":"2026-041D","EPOCH":"2026-03-18T09:11:57.228864","MEAN_MOTION":15.80978321,"ECCENTRICITY":9.985e-5,"INCLINATION":53.1598,"RA_OF_ASC_NODE":18.5476,"ARG_OF_PERICENTER":53.3205,"MEAN_ANOMALY":306.791,"EPHEMERIS_TYPE":0,"CLASSIFICATION_TYPE":"U","NORAD_CAT_ID":68043,"ELEMENT_SET_NO":999,"REV_AT_EPOCH":259,"BSTAR":0.0011494416,"MEAN_MOTION_DOT":0.00233536,"MEAN_MOTION_DDOT":0},{"OBJECT_NAME":"STARLINK-36966","OBJECT_ID":"2026-041E","EPOCH":"2026-03-18T14:00:01.000224","MEAN_MOTION":15.75244748,"ECCENTRICITY":0.0001217,"INCLINATION":53.1598,"RA_OF_ASC_NODE":17.6792,"ARG_OF_PERICENTER":104.755,"MEAN_ANOMALY":248.4721,"EPHEMERIS_TYPE":0,"CLASSIFICATION_TYPE":"U","NORAD_CAT_ID":68044,"ELEMENT_SET_NO":999,"REV_AT_EPOCH":380,"BSTAR":-0.00024964721,"MEAN_MOTION_DOT":-0.00038742,"MEAN_MOTION_DDOT":0},{"OBJECT_NAME":"STARLINK-36864","OBJECT_ID":"2026-041F","EPOCH":"2026-03-18T14:00:01.000224","MEAN_MOTION":15.75199409,"ECCENTRICITY":0.00014561,"INCLINATION":53.1599,"RA_OF_ASC_NODE":17.6755,"ARG_OF_PERICENTER":90.5227,"MEAN_ANOMALY":264.6077,"EPHEMERIS_TYPE":0,"CLASSIFICATION_TYPE":"U","NORAD_CAT_ID":68045,"ELEMENT_SET_NO":999,"REV_AT_EPOCH":380,"BSTAR":1.3132759e-5,"MEAN_MOTION_DOT":1.37e-5,"MEAN_MOTION_DDOT":0},{"OBJECT_NAME":"STARLINK-36321","OBJECT_ID":"2026-041G","EPOCH":"2026-03-18T07:36:35.942688","MEAN_MOTION":15.80968218,"ECCENTRICITY":0.00010237,"INCLINATION":53.1596,"RA_OF_ASC_NODE":18.8439,"ARG_OF_PERICENTER":138.8641,"MEAN_ANOMALY":221.2459,"EPHEMERIS_TYPE":0,"CLASSIFICATION_TYPE":"U","NORAD_CAT_ID":68046,"ELEMENT_SET_NO":999,"REV_AT_EPOCH":258,"BSTAR":0.0011375546,"MEAN_MOTION_DOT":0.00230935,"MEAN_MOTION_DDOT":0},{"OBJECT_NAME":"STARLINK-36181","OBJECT_ID":"2026-041H","EPOCH":"2026-03-18T10:39:44.778528","MEAN_MOTION":15.80987991,"ECCENTRICITY":0.00014506,"INCLINATION":53.1599,"RA_OF_ASC_NODE":18.2143,"ARG_OF_PERICENTER":166.1689,"MEAN_ANOMALY":193.9374,"EPHEMERIS_TYPE":0,"CLASSIFICATION_TYPE":"U","NORAD_CAT_ID":68047,"ELEMENT_SET_NO":999,"REV_AT_EPOCH":260,"BSTAR":0.0012423688,"MEAN_MOTION_DOT":0.00253166,"MEAN_MOTION_DDOT":0},{"OBJECT_NAME":"STARLINK-36318","OBJECT_ID":"2026-041J","EPOCH":"2026-03-18T14:00:01.000224","MEAN_MOTION":15.75237587,"ECCENTRICITY":0.00010043,"INCLINATION":53.1604,"RA_OF_ASC_NODE":17.6261,"ARG_OF_PERICENTER":102.3316,"MEAN_ANOMALY":276.6562,"EPHEMERIS_TYPE":0,"CLASSIFICATION_TYPE":"U","NORAD_CAT_ID":68048,"ELEMENT_SET_NO":999,"REV_AT_EPOCH":380,"BSTAR":-0.0002496984,"MEAN_MOTION_DOT":-0.00038737,"MEAN_MOTION_DDOT":0},{"OBJECT_NAME":"STARLINK-36885","OBJECT_ID":"2026-041K","EPOCH":"2026-03-18T14:00:01.000224","MEAN_MOTION":15.75273287,"ECCENTRICITY":9.641e-5,"INCLINATION":53.1602,"RA_OF_ASC_NODE":17.6222,"ARG_OF_PERICENTER":122.9162,"MEAN_ANOMALY":257.9208,"EPHEMERIS_TYPE":0,"CLASSIFICATION_TYPE":"U","NORAD_CAT_ID":68049,"ELEMENT_SET_NO":999,"REV_AT_EPOCH":380,"BSTAR":-0.00055698,"MEAN_MOTION_DOT":-0.00085287,"MEAN_MOTION_DDOT":0},{"OBJECT_NAME":"STARLINK-36945","OBJECT_ID":"2026-041L","EPOCH":"2026-03-18T07:34:26.355648","MEAN_MOTION":15.80977161,"ECCENTRICITY":9.618e-5,"INCLINATION":53.1597,"RA_OF_ASC_NODE":18.8338,"ARG_OF_PERICENTER":98.0309,"MEAN_ANOMALY":262.0823,"EPHEMERIS_TYPE":0,"CLASSIFICATION_TYPE":"U","NORAD_CAT_ID":68050,"ELEMENT_SET_NO":999,"REV_AT_EPOCH":258,"BSTAR":0.0012851609,"MEAN_MOTION_DOT":0.00262054,"MEAN_MOTION_DDOT":0},{"OBJECT_NAME":"STARLINK-35911","OBJECT_ID":"2026-041M","EPOCH":"2026-03-18T07:32:16.912032","MEAN_MOTION":15.80945826,"ECCENTRICITY":0.00010632,"INCLINATION":53.1598,"RA_OF_ASC_NODE":18.824,"ARG_OF_PERICENTER":72.6086,"MEAN_ANOMALY":287.5053,"EPHEMERIS_TYPE":0,"CLASSIFICATION_TYPE":"U","NORAD_CAT_ID":68051,"ELEMENT_SET_NO":999,"REV_AT_EPOCH":258,"BSTAR":0.00094187403,"MEAN_MOTION_DOT":0.00189979,"MEAN_MOTION_DDOT":0},{"OBJECT_NAME":"STARLINK-35808","OBJECT_ID":"2026-041N","EPOCH":"2026-03-18T07:31:12.095616","MEAN_MOTION":15.80959336,"ECCENTRICITY":0.00011292,"INCLINATION":53.1598,"RA_OF_ASC_NODE":18.8182,"ARG_OF_PERICENTER":111.5135,"MEAN_ANOMALY":248.6009,"EPHEMERIS_TYPE":0,"CLASSIFICATION_TYPE":"U","NORAD_CAT_ID":68052,"ELEMENT_SET_NO":999,"REV_AT_EPOCH":258,"BSTAR":0.0011450653,"MEAN_MOTION_DOT":0.00232409,"MEAN_MOTION_DDOT":0},{"OBJECT_NAME":"STARLINK-36919","OBJECT_ID":"2026-041P","EPOCH":"2026-03-18T07:30:07.221312","MEAN_MOTION":15.80951172,"ECCENTRICITY":0.00010212,"INCLINATION":53.1599,"RA_OF_ASC_NODE":18.8125,"ARG_OF_PERICENTER":79.5036,"MEAN_ANOMALY":280.6102,"EPHEMERIS_TYPE":0,"CLASSIFICATION_TYPE":"U","NORAD_CAT_ID":68053,"ELEMENT_SET_NO":999,"REV_AT_EPOCH":258,"BSTAR":0.00099173841,"MEAN_MOTION_DOT":0.00200366,"MEAN_MOTION_DDOT":0},{"OBJECT_NAME":"STARLINK-36924","OBJECT_ID":"2026-041Q","EPOCH":"2026-03-18T14:00:01.000224","MEAN_MOTION":15.7524484,"ECCENTRICITY":0.00010713,"INCLINATION":53.1606,"RA_OF_ASC_NODE":17.5732,"ARG_OF_PERICENTER":98.4042,"MEAN_ANOMALY":306.3339,"EPHEMERIS_TYPE":0,"CLASSIFICATION_TYPE":"U","NORAD_CAT_ID":68054,"ELEMENT_SET_NO":999,"REV_AT_EPOCH":380,"BSTAR":-0.00029899548,"MEAN_MOTION_DOT":-0.00046233,"MEAN_MOTION_DDOT":0},{"OBJECT_NAME":"STARLINK-35998","OBJECT_ID":"2026-041R","EPOCH":"2026-03-18T07:29:02.485248","MEAN_MOTION":15.8096896,"ECCENTRICITY":0.00011852,"INCLINATION":53.1598,"RA_OF_ASC_NODE":18.8081,"ARG_OF_PERICENTER":98.1667,"MEAN_ANOMALY":261.9491,"EPHEMERIS_TYPE":0,"CLASSIFICATION_TYPE":"U","NORAD_CAT_ID":68055,"ELEMENT_SET_NO":999,"REV_AT_EPOCH":258,"BSTAR":0.0012447054,"MEAN_MOTION_DOT":0.00253429,"MEAN_MOTION_DDOT":0},{"OBJECT_NAME":"STARLINK-36845","OBJECT_ID":"2026-041S","EPOCH":"2026-03-18T10:28:56.801856","MEAN_MOTION":15.8094826,"ECCENTRICITY":0.00011911,"INCLINATION":53.16,"RA_OF_ASC_NODE":18.1636,"ARG_OF_PERICENTER":152.5796,"MEAN_ANOMALY":207.529,"EPHEMERIS_TYPE":0,"CLASSIFICATION_TYPE":"U","NORAD_CAT_ID":68056,"ELEMENT_SET_NO":999,"REV_AT_EPOCH":260,"BSTAR":0.00078061005,"MEAN_MOTION_DOT":0.00156738,"MEAN_MOTION_DDOT":0},{"OBJECT_NAME":"STARLINK-36954","OBJECT_ID":"2026-041T","EPOCH":"2026-03-18T14:00:01.000224","MEAN_MOTION":15.75246616,"ECCENTRICITY":0.00010161,"INCLINATION":53.1604,"RA_OF_ASC_NODE":17.5687,"ARG_OF_PERICENTER":120.4919,"MEAN_ANOMALY":286.1096,"EPHEMERIS_TYPE":0,"CLASSIFICATION_TYPE":"U","NORAD_CAT_ID":68057,"ELEMENT_SET_NO":999,"REV_AT_EPOCH":380,"BSTAR":-0.00029106583,"MEAN_MOTION_DOT":-0.00045033,"MEAN_MOTION_DDOT":0}]
