STARLINK-36925          
1 68042U 26041C   26077.39876118  .00205268  00000+0  13072-2 0  9995
2 68042  53.1596  18.6500 0000934  91.7220 268.3908 15.75305241  2593
STARLINK-36902          
1 68043U 26041D   26077.38330126  .00233536  00000+0  11494-2 0  9994
2 68043  53.1598  18.5476 0000998  53.3205 306.7910 15.80978321  2595
STARLINK-36966          
1 68044U 26041E   26077.58334491 -.00038742  00000+0 -24965-3 0  9998
2 68044  53.1598  17.6792 0001217 104.7550 248.4721 15.75244748  3806
STARLINK-36864          
1 68045U 26041F   26077.58334491  .00001370  00000+0  13133-4 0  9990
2 68045  53.1599  17.6755 0001456  90.5227 264.6077 15.75199409  3802
STARLINK-36321          
1 68046U 26041G   26077.31708267  .00230935  00000+0  11376-2 0  9994
2 68046  53.1596  18.8439 0001023 138.8641 221.2459 15.80968218  2583
STARLINK-36181          
1 68047U 26041H   26077.44426827  .00253166  00000+0  12424-2 0  9994
2 68047  53.1599  18.2143 0001450 166.1689 193.9374 15.80987991  2606
STARLINK-36318          
1 68048U 26041J   26077.58334491 -.00038737  00000+0 -24970-3 0  9992
2 68048  53.1604  17.6261 0001004 102.3316 276.6562 15.75237587  3806
STARLINK-36885          
1 68049U 26041K   26077.58334491 -.00085287  00000+0 -55698-3 0  9996
2 68049  53.1602  17.6222 0000964 122.9162 257.9208 15.75273287  3809
STARLINK-36945          
1 68050U 26041L   26077.31558282  .00262054  00000+0  12852-2 0  9996
2 68050  53.1597  18.8338 0000961  98.0309 262.0823 15.80977161  2580
STARLINK-35911          
1 68051U 26041M   26077.31408463  .00189979  00000+0  94187-3 0  9998
2 68051  53.1598  18.8240 0001063  72.6086 287.5053 15.80945826  2588
STARLINK-35808          
1 68052U 26041N   26077.31333444  .00232409  00000+0  11451-2 0  9994
2 68052  53.1598  18.8182 0001129 111.5135 248.6009 15.80959336  2585
STARLINK-36919          
1 68053U 26041P   26077.31258358  .00200366  00000+0  99174-3 0  9991
2 68053  53.1599  18.8125 0001021  79.5036 280.6102 15.80951172  2588
STARLINK-36924          
1 68054U 26041Q   26077.58334491 -.00046233  00000+0 -29900-3 0  9997
2 68054  53.1606  17.5732 0001071  98.4042 306.3339 15.75244840  3805
STARLINK-35998          
1 68055U 26041R   26077.31183432  .00253429  00000+0  12447-2 0  9998
2 68055  53.1598  18.8081 0001185  98.1667 261.9491 15.80968960  2584
STARLINK-36845          
1 68056U 26041S   26077.43676854  .00156738  00000+0  78061-3 0  9997
2 68056  53.1600  18.1636 0001191 152.5796 207.5290 15.80948260  2600
STARLINK-36954          
1 68057U 26041T   26077.58334491 -.00045033  00000+0 -29107-3 0  9996
2 68057  53.1604  17.5687 0001016 120.4919 286.1096 15.75246616  3801
